STARLINK-2466
1 28125C 21027AK  21325.14304156  .00003005  00000-0  20129-3 0  3257
2 28125  53.0558  17.5862 0001332  68.5383 316.4748 15.06399684    14
